VSP RF A1               
1 59135U 24043AP  26066.03073316  .00000577  00000+0  25199-4 0  9997
2 59135  97.5247 201.5379 0009431 234.6315 125.4042 15.26179596111403
STARLINK-32944          
1 63022U 25032T   26068.15618337  .00037562  00000+0  13665-2 0  9996
2 63022  43.0004 339.4817 0002541 249.7055 110.3524 15.27603756 60537
